{"type": "FeatureCollection", "features": [ {"type": "Feature", "properties": {"norad_id": 35830, "name": "COSMOS 2251 DEB", "group": "cosmos-2251-debris", "lat": -72.69955693623682, "lon": -169.34159658088475, "alt_km": 761.4948033845021, "timestamp": "2025-12-16T19:34:24.665321+00:00", "meta": {"OBJECT_NAME": "COSMOS 2251 DEB", "OBJECT_ID": "1993-036ATC", "EPOCH": "2025-12-14T12:19:34.493088", "MEAN_MOTION": 14.23999153, "ECCENTRICITY": 0.01219147, "INCLINATION": 73.8627, "RA_OF_ASC_NODE": 263.2082, "ARG_OF_PERICENTER": 231.1991, "MEAN_ANOMALY": 127.8218, "EPHEMERIS_TYPE": 0, "CLASSIFICATION_TYPE": "U", "NORAD_CAT_ID": 35830, "ELEMENT_SET_NO": 999, "REV_AT_EPOCH": 61289, "BSTAR": 0.0011142473, "MEAN_MOTION_DOT": 2.736e-05, "MEAN_MOTION_DDOT": 0}, "tle": {"line1": "1 35830U 93036ATC 25348.51359367  .00002736  00000+0  11142-2 0  9999", "line2": "2 35830  73.8627 263.2082 0121914 231.1991 127.8218 14.23999153612892"}}, "geometry": {"type": "Point", "coordinates": [-169.34159658088475, -72.69955693623682]}}, {"type": "Feature", "properties": {"norad_id": 35834, "name": "COSMOS 2251 DEB", "group": "cosmos-2251-debris", "lat": -46.19629507167342, "lon": -80.19947490210858, "alt_km": 920.1421778152453, "timestamp": "2025-12-16T19:34:24.665331+00:00", "meta": {"OBJECT_NAME": "COSMOS 2251 DEB", "OBJECT_ID": "1993-036ATG", "EPOCH": "2025-12-14T22:12:13.860288", "MEAN_MOTION": 14.12983028, "ECCENTRICITY": 0.01092939, "INCLINATION": 73.9319, "RA_OF_ASC_NODE": 300.6514, "ARG_OF_PERICENTER": 100.3352, "MEAN_ANOMALY": 319.5406, "EPHEMERIS_TYPE": 0, "CLASSIFICATION_TYPE": "U", "NORAD_CAT_ID": 35834, "ELEMENT_SET_NO": 999, "REV_AT_EPOCH": 66294, "BSTAR": 0.00039555683, "MEAN_MOTION_DOT": 7.56e-06, "MEAN_MOTION_DDOT": 0}, "tle": {"line1": "1 35834U 93036ATG 25348.92516042  .00000756  00000+0  39556-3 0  9993", "line2": "2 35834  73.9319 300.6514 0109293 100.3352 319.5406 14.12983028662947"}}, "geometry": {"type": "Point", "coordinates": [-80.19947490210858, -46.19629507167342]}}, {"type": "Feature", "properties": {"norad_id": 35835, "name": "COSMOS 2251 DEB", "group": "cosmos-2251-debris", "lat": 10.105564077189472, "lon": 78.66766486894103, "alt_km": 1079.3589373350205, "timestamp": "2025-12-16T19:34:24.665341+00:00", "meta": {"OBJECT_NAME": "COSMOS 2251 DEB", "OBJECT_ID": "1993-036ATH", "EPOCH": "2025-12-14T02:32:38.290272", "MEAN_MOTION": 13.82885991, "ECCENTRICITY": 0.02905018, "INCLINATION": 74.0643, "RA_OF_ASC_NODE": 266.1402, "ARG_OF_PERICENTER": 47.4139, "MEAN_ANOMALY": 315.1102, "EPHEMERIS_TYPE": 0, "CLASSIFICATION_TYPE": "U", "NORAD_CAT_ID": 35835, "ELEMENT_SET_NO": 999, "REV_AT_EPOCH": 61718, "BSTAR": 0.0018908593, "MEAN_MOTION_DOT": 2.83e-05, "MEAN_MOTION_DDOT": 0}, "tle": {"line1": "1 35835U 93036ATH 25348.10599873  .00002830  00000+0  18909-2 0  9990", "line2": "2 35835  74.0643 266.1402 0290501  47.4139 315.1102 13.82885991617186"}}, "geometry": {"type": "Point", "coordinates": [78.66766486894103, 10.105564077189472]}}, {"type": "Feature", "properties": {"norad_id": 35836, "name": "COSMOS 2251 DEB", "group": "cosmos-2251-debris", "lat": -53.51759159398138, "lon": 7.801087939227208, "alt_km": 647.9367052994639, "timestamp": "2025-12-16T19:34:24.665351+00:00", "meta": {"OBJECT_NAME": "COSMOS 2251 DEB", "OBJECT_ID": "1993-036ATJ", "EPOCH": "2025-12-15T04:57:37.173600", "MEAN_MOTION": 14.7102941, "ECCENTRICITY": 0.00240331, "INCLINATION": 74.0312, "RA_OF_ASC_NODE": 168.1432, "ARG_OF_PERICENTER": 226.3716, "MEAN_ANOMALY": 133.5463, "EPHEMERIS_TYPE": 0, "CLASSIFICATION_TYPE": "U", "NORAD_CAT_ID": 35836, "ELEMENT_SET_NO": 999, "REV_AT_EPOCH": 63556, "BSTAR": 0.0012109146, "MEAN_MOTION_DOT": 7.444e-05, "MEAN_MOTION_DDOT": 0}, "tle": {"line1": "1 35836U 93036ATJ 25349.20668025  .00007444  00000+0  12109-2 0  9991", "line2": "2 35836  74.0312 168.1432 0024033 226.3716 133.5463 14.71029410635567"}}, "geometry": {"type": "Point", "coordinates": [7.801087939227208, -53.51759159398138]}}, {"type": "Feature", "properties": {"norad_id": 35837, "name": "COSMOS 2251 DEB", "group": "cosmos-2251-debris", "lat": 19.385402869331077, "lon": -153.25255680698822, "alt_km": 1067.775676065059, "timestamp": "2025-12-16T19:34:24.665361+00:00", "meta": {"OBJECT_NAME": "COSMOS 2251 DEB", "OBJECT_ID": "1993-036ATK", "EPOCH": "2025-12-15T09:05:06.776160", "MEAN_MOTION": 13.63487481, "ECCENTRICITY": 0.04220862, "INCLINATION": 73.7223, "RA_OF_ASC_NODE": 203.2367, "ARG_OF_PERICENTER": 123.6025, "MEAN_ANOMALY": 50.428, "EPHEMERIS_TYPE": 0, "CLASSIFICATION_TYPE": "U", "NORAD_CAT_ID": 35837, "ELEMENT_SET_NO": 999, "REV_AT_EPOCH": 58012, "BSTAR": 0.0018212331, "MEAN_MOTION_DOT": 2.609e-05, "MEAN_MOTION_DDOT": 0}, "tle": {"line1": "1 35837U 93036ATK 25349.37855065  .00002609  00000+0  18212-2 0  9991", "line2": "2 35837  73.7223 203.2367 0422086 123.6025  50.4280 13.63487481580126"}}, "geometry": {"type": "Point", "coordinates": [-153.25255680698822, 19.385402869331077]}}, {"type": "Feature", "properties": {"norad_id": 35839, "name": "COSMOS 2251 DEB", "group": "cosmos-2251-debris", "lat": -43.29790495824893, "lon": -60.85570413230906, "alt_km": 410.8562806227337, "timestamp": "2025-12-16T19:34:24.665372+00:00", "meta": {"OBJECT_NAME": "COSMOS 2251 DEB", "OBJECT_ID": "1993-036ATM", "EPOCH": "2025-12-15T14:25:31.039680", "MEAN_MOTION": 15.5439678, "ECCENTRICITY": 0.00035051, "INCLINATION": 74.2054, "RA_OF_ASC_NODE": 317.2687, "ARG_OF_PERICENTER": 130.154, "MEAN_ANOMALY": 229.9984, "EPHEMERIS_TYPE": 0, "CLASSIFICATION_TYPE": "U", "NORAD_CAT_ID": 35839, "ELEMENT_SET_NO": 999, "REV_AT_EPOCH": 88612, "BSTAR": 0.0039077103, "MEAN_MOTION_DOT": 0.00265243, "MEAN_MOTION_DDOT": 0}, "tle": {"line1": "1 35839U 93036ATM 25349.60105370  .00265243  00000+0  39077-2 0  9993", "line2": "2 35839  74.2054 317.2687 0003505 130.1540 229.9984 15.54396780886129"}}, "geometry": {"type": "Point", "coordinates": [-60.85570413230906, -43.29790495824893]}}, {"type": "Feature", "properties": {"norad_id": 35840, "name": "COSMOS 2251 DEB", "group": "cosmos-2251-debris", "lat": -18.98443875489118, "lon": -23.68227355440645, "alt_km": 839.8684228732345, "timestamp": "2025-12-16T19:34:24.665382+00:00", "meta": {"OBJECT_NAME": "COSMOS 2251 DEB", "OBJECT_ID": "1993-036ATN", "EPOCH": "2025-12-12T04:26:56.474304", "MEAN_MOTION": 14.37821687, "ECCENTRICITY": 0.01162768, "INCLINATION": 73.9307, "RA_OF_ASC_NODE": 159.2062, "ARG_OF_PERICENTER": 61.7798, "MEAN_ANOMALY": 299.5037, "EPHEMERIS_TYPE": 0, "CLASSIFICATION_TYPE": "U", "NORAD_CAT_ID": 35840, "ELEMENT_SET_NO": 999, "REV_AT_EPOCH": 85283, "BSTAR": 0.0026691111, "MEAN_MOTION_DOT": 8.683e-05, "MEAN_MOTION_DDOT": 0}, "tle": {"line1": "1 35840U 93036ATN 25346.18537586  .00008683  00000+0  26691-2 0  9994", "line2": "2 35840  73.9307 159.2062 0116276  61.7798 299.5037 14.37821687852835"}}, "geometry": {"type": "Point", "coordinates": [-23.68227355440645, -18.98443875489118]}}, {"type": "Feature", "properties": {"norad_id": 35883, "name": "COSMOS 2251 DEB", "group": "cosmos-2251-debris", "lat": 24.277833361339127, "lon": 69.78318927890412, "alt_km": 780.0417735885985, "timestamp": "2025-12-16T19:34:24.665392+00:00", "meta": {"OBJECT_NAME": "COSMOS 2251 DEB", "OBJECT_ID": "1993-036ATW", "EPOCH": "2025-12-15T13:58:55.079616", "MEAN_MOTION": 14.50613846, "ECCENTRICITY": 0.00835385, "INCLINATION": 74.0252, "RA_OF_ASC_NODE": 64.6779, "ARG_OF_PERICENTER": 193.3998, "MEAN_ANOMALY": 235.9956, "EPHEMERIS_TYPE": 0, "CLASSIFICATION_TYPE": "U", "NORAD_CAT_ID": 35883, "ELEMENT_SET_NO": 999, "REV_AT_EPOCH": 62427, "BSTAR": 0.00024458991, "MEAN_MOTION_DOT": 9.74e-06, "MEAN_MOTION_DDOT": 0}, "tle": {"line1": "1 35883U 93036ATW 25349.58258194  .00000974  00000+0  24459-3 0  9999", "line2": "2 35883  74.0252  64.6779 0083538 193.3998 235.9956 14.50613846624275"}}, "geometry": {"type": "Point", "coordinates": [69.78318927890412, 24.277833361339127]}}, {"type": "Feature", "properties": {"norad_id": 35884, "name": "COSMOS 2251 DEB", "group": "cosmos-2251-debris", "lat": 70.9241486478482, "lon": 92.5132547642158, "alt_km": 723.2743153325519, "timestamp": "2025-12-16T19:34:24.665402+00:00", "meta": {"OBJECT_NAME": "COSMOS 2251 DEB", "OBJECT_ID": "1993-036ATX", "EPOCH": "2025-12-09T17:00:47.209536", "MEAN_MOTION": 14.25629404, "ECCENTRICITY": 0.01087033, "INCLINATION": 73.9912, "RA_OF_ASC_NODE": 341.4952, "ARG_OF_PERICENTER": 129.2859, "MEAN_ANOMALY": 231.7992, "EPHEMERIS_TYPE": 0, "CLASSIFICATION_TYPE": "U", "NORAD_CAT_ID": 35884, "ELEMENT_SET_NO": 999, "REV_AT_EPOCH": 22314, "BSTAR": 0.001725321, "MEAN_MOTION_DOT": 4.326e-05, "MEAN_MOTION_DDOT": 0}, "tle": {"line1": "1 35884U 93036ATX 25343.70887974  .00004326  00000+0  17253-2 0  9990", "line2": "2 35884  73.9912 341.4952 0108703 129.2859 231.7992 14.25629404223146"}}, "geometry": {"type": "Point", "coordinates": [92.5132547642158, 70.9241486478482]}}, {"type": "Feature", "properties": {"norad_id": 35885, "name": "COSMOS 2251 DEB", "group": "cosmos-2251-debris", "lat": 60.582477763400675, "lon": -42.18389566515012, "alt_km": 751.6050449563627, "timestamp": "2025-12-16T19:34:24.665412+00:00", "meta": {"OBJECT_NAME": "COSMOS 2251 DEB", "OBJECT_ID": "1993-036ATY", "EPOCH": "2025-12-15T04:51:32.201856", "MEAN_MOTION": 14.37525016, "ECCENTRICITY": 0.00233799, "INCLINATION": 74.0284, "RA_OF_ASC_NODE": 290.2606, "ARG_OF_PERICENTER": 10.1801, "MEAN_ANOMALY": 349.9821, "EPHEMERIS_TYPE": 0, "CLASSIFICATION_TYPE": "U", "NORAD_CAT_ID": 35885, "ELEMENT_SET_NO": 999, "REV_AT_EPOCH": 65051, "BSTAR": 0.00032687852, "MEAN_MOTION_DOT": 9.56e-06, "MEAN_MOTION_DDOT": 0}, "tle": {"line1": "1 35885U 93036ATY 25349.20245604  .00000956  00000+0  32688-3 0  9995", "line2": "2 35885  74.0284 290.2606 0023379  10.1801 349.9821 14.37525016650513"}}, "geometry": {"type": "Point", "coordinates": [-42.18389566515012, 60.582477763400675]}}]}